PROGRESS-MS 26          
1 58961U 24029A   24047.90431976  .00112811  15792-4  35701-3 0  9993
2 58961  51.6439 196.4969 0027675 349.6544  94.7174 15.90440005   285
IM-1                    
1 58963U 24030A   24046.86640046 -.00014929  00000+0  00000+0 0  9994
2 58963  28.6500  67.7900 9686440 239.7630  18.8830  0.08992573    90
FALCON 9 R/B            
1 58964U 24030B   24046.27792824 -.00014702  00000+0  00000+0 0  9991
2 58964  28.5100  65.0800 9704700 239.9600   5.0000  0.08200507    02
2024-032A               
1 58987U 24032A   24048.35733723 -.00000048  00000+0  00000+0 0  9990
2 58987  98.1171 105.7580 0001394 241.7740 236.3324 14.66556065    45
2024-032B               
1 58988U 24032B   24048.21491216 -.00000048  00000+0  00000+0 0  9994
2 58988  98.1085 105.6176 0001497 196.2578 250.3577 14.66540826    29
2024-032C               
1 58989U 24032C   24048.35725789 -.00000049  00000+0  00000+0 0  9996
2 58989  98.1154 105.7649 0004591 357.0748 122.1014 14.67822104    44
