OBJECT_NAME,OBJECT_ID,EPOCH,MEAN_MOTION,ECCENTRICITY,INCLINATION,RA_OF_ASC_NODE,ARG_OF_PERICENTER,MEAN_ANOMALY,EPHEMERIS_TYPE,CLASSIFICATION_TYPE,NORAD_CAT_ID,ELEMENT_SET_NO,REV_AT_EPOCH,BSTAR,MEAN_MOTION_DOT,MEAN_MOTION_DDOT
PROGRESS-MS 26,2024-029A,2024-02-16T21:42:13.227264,15.90440005,0.0027675,51.6439,196.4969,349.6544,94.7174,0,U,58961,999,28,0.00035701,0.00112811,1.5792e-05
IM-1,2024-030A,2024-02-15T20:47:36.999744,0.08992573,0.968644,28.65,67.79,239.763,18.883,0,U,58963,999,9,0,-0.00014929,0
FALCON 9 R/B,2024-030B,2024-02-15T06:40:12.999936,0.08200507,0.97047,28.51,65.08,239.96,5,0,U,58964,999,0,0,-0.00014702,0
2024-032A,2024-032A,2024-02-17T08:34:33.936672,14.66556065,0.0001394,98.1171,105.758,241.774,236.3324,0,U,58987,999,4,0,-4.8e-07,0
2024-032B,2024-032B,2024-02-17T05:09:28.410624,14.66540826,0.0001497,98.1085,105.6176,196.2578,250.3577,0,U,58988,999,2,0,-4.8e-07,0
2024-032C,2024-032C,2024-02-17T08:34:27.081696,14.67822104,0.0004591,98.1154,105.7649,357.0748,122.1014,0,U,58989,999,4,0,-4.9e-07,0
